[{"OBJECT_NAME":"TYVAK-0130","OBJECT_ID":"2021-041BF","EPOCH":"2026-03-09T11:37:42.710304","MEAN_MOTION":15.26049141,"ECCENTRICITY":0.0008953,"INCLINATION":52.9967,"RA_OF_ASC_NODE":128.603,"ARG_OF_PERICENTER":215.1647,"MEAN_ANOMALY":144.876,"EPHEMERIS_TYPE":0,"CLASSIFICATION_TYPE":"U","NORAD_CAT_ID":48606,"ELEMENT_SET_NO":999,"REV_AT_EPOCH":26515,"BSTAR":0.0003519806,"MEAN_MOTION_DOT":8.857e-5,"MEAN_MOTION_DDOT":0},{"OBJECT_NAME":"STARLINK-30485","OBJECT_ID":"2023-147H","EPOCH":"2026-03-09T22:00:01.999584","MEAN_MOTION":15.26757008,"ECCENTRICITY":0.00017388,"INCLINATION":42.9999,"RA_OF_ASC_NODE":323.8255,"ARG_OF_PERICENTER":290.0372,"MEAN_ANOMALY":78.2448,"EPHEMERIS_TYPE":0,"CLASSIFICATION_TYPE":"U","NORAD_CAT_ID":57920,"ELEMENT_SET_NO":999,"REV_AT_EPOCH":577,"BSTAR":0.0017900753,"MEAN_MOTION_DOT":0.00048096,"MEAN_MOTION_DDOT":0}]
